#dP2023  8 26  0  0  0.00000000      96 __u+U IGS14 FIT  IAC
## 2276 518400.00000000   900.00000000 60182 0.0000000000000
+  118   C06C07C08C09C10C11C12C13C14C16C19C20C21C22C23C24C25
+        C26C27C28C29C30C32C33C34C35C36C37C38C39C40C41C42C43
+        C44C45C46E02E03E04E05E07E08E09E10E11E12E13E14E15E18
+        E19E21E24E25E26E27E30E31E33E34E36G01G02G03G04G05G06
+        G07G08G09G10G11G12G13G14G15G16G17G18G19G20G21G22G23
+        G24G25G26G27G28G29G30G31J02J03J04R01R02R03R04R05R07
+        R08R09R11R12R13R14R15R16R17R18R19R20R21R22R24R25  0
++         7  7  7  7  7  7  7  7  7  7  5  6  6  6  6  6  6
++         7  6  6  6  6  6  6  6  6  6  6  7  6  6  6  6  6
++         6  6  6  4  5  4  4  4  5  4  4  4  4  4  4  5  5
++         4  4  4  4  5  4  4  5  5  5  4  4  4  3  4  4  3
++         4  4  3  4  3  3  4  4  4  4  3  4  3  4  4  4  4
++         4  3  4  4  4  4  3  4  9  9  9  8  7  7  7  7  7
++         7  7  7  7  8  7  7  7  7  7  8  8  7  6  7  8  0
%c M  cc GPS ccc cccc cccc cccc cccc ccccc ccccc ccccc ccccc
%c cc cc ccc ccc cccc cccc cccc cccc ccccc ccccc ccccc ccccc
%f  1.2500000  1.025000000  0.00000000000  0.000000000000000
%f  0.0000000  0.000000000  0.00000000000  0.000000000000000
%i    0    0    0    0      0      0      0      0         0
%i    0    0    0    0      0      0      0      0         0
/* INFORMATION & ANALYSIS CENTER (IAC)            FINAL DATA
/* S/V CLOCKS ARE ALIGNED TO GNSS TIME                      
/* G:C1WC2W R:C1PC2P E:C1XC5X C:C2IC6I J:C1CC2S             
/* PCV:IGS20_2274 OL/AL:FES2004  NONE     YN ORB:CoN CLK:CoN
*  2023 08 26  3  0  0.00000000
PC06 -18756.314620  29053.274564 -24296.430573    936.299361
PC07  -7153.125046  39632.857384 -12018.309837     12.546111
PC08  -1832.895880  22163.103505  35828.645847    374.189768
PC09 -11187.332759  27948.840140 -29323.229491    246.559617
PC10  -1356.756153  41397.764863  -5741.520103   -157.362714
PC11  23118.222897  -7337.110586  13894.589265    798.586300
PC12  12744.731472   9242.375800  23079.634085    902.774095
PC13   4807.099272  25834.749910  33183.309692    340.793041
PC14  15967.432041     40.839741 -22874.558111    292.103957
PC16 -22164.791554  28437.629294 -21852.199385    -51.514646
PC19 -13108.623540  10769.257760  22168.669921   -968.569058
PC20 -16298.353477  -9156.954873  20731.376598    333.489158
PC21   9846.903919  25249.148432  -6595.823798   -956.302825
PC22  -2208.449507  25589.079910  10870.525850   -335.287727
PC23   6545.774991 -15027.928172  22595.806557   -892.530773
PC24  26205.027975   9553.961397  -1249.889150    323.745928
PC25  22529.227103  -5005.551306  15697.120677    197.356946
PC26  15249.275373  16833.217548 -16247.211183   -168.506861
PC27  -5445.487778 -15889.020549 -22304.636275    189.831766
PC28  11052.915815 -21951.179396 -13223.961510    142.134538
PC29 -22305.012838  15824.543085  -5545.020333    165.875095
PC30 -19470.419418   -803.267033 -19988.396018     -3.989165
PC32 -10002.690541 -25237.710271   6497.204053   -530.601498
PC33  13095.772625 -10777.276373 -22167.922220   -947.253776
PC34  20180.522214   -473.325852  19250.176575    245.309156
PC35 -10404.490822  22399.387993  13009.396482    560.061261
PC36 -23109.170715   3896.256210 -15115.234789   -257.811215
PC37 -13948.328098 -17326.027753  16855.404736   -814.142627
PC38 -11120.915304  19980.891230  35441.365132    100.591314
PC39 -25657.934295  29117.469361 -16732.307490     -4.491864
PC40 -12286.900933  36949.856768 -15801.466587    -34.203346
PC41   2571.843839 -25308.245487 -11437.416233   -884.358544
PC42  16222.078961  10665.220111 -20000.937533   -566.316536
PC43  22534.295269 -15180.614350   6322.803652     36.904493
PC44   5918.030049  15914.514622  22135.828076    211.556982
PC45  -5900.225802  15118.753892 -22694.779969    -18.272393
PC46 -26475.042448  -8753.838732    -24.093349    -79.358460
PE02  21635.756688  18945.108058   7044.327175     57.959042
PE03  13618.879050  11175.077069 -23790.852663    -49.597610
PE04 -18990.633710  10345.408141  20214.230712   -197.677323
PE05    260.280811  26334.252527 -13510.893649     12.423052
PE07  13428.694892 -25906.857498  -5000.113035    -70.098481
PE08  18866.321247  -9960.437465 -20526.803800   -136.135411
PE09 -13446.438167  25848.865387   5170.783593   -133.556888
PE10 -25411.391037  11086.412207  10338.554063   -558.893830
PE11 -17165.287170  15161.949830  18738.703846   2802.657382
PE12 -29042.518929   5621.403629   1156.599843   -672.415787
PE13  17827.823854 -14943.097083 -18308.277757    -19.507684
PE14  -7776.924599  22437.671098   2888.175015    321.896126
PE15  29092.130961  -5420.927911   -763.452162    -48.065660
PE18   3624.506623 -29949.133648 -11691.209260    456.379667
PE19 -12026.647627 -13768.330945  23283.916086  -1770.178543
PE21 -11104.823452 -25253.985660  10736.091674   -548.839503
PE24  -7065.279861  16851.625778 -23297.200744   -286.196518
PE25  10835.270983  25238.962260 -11025.773543     -0.826901
PE26  -4540.763414 -15593.792755 -24746.945045    203.612617
PE27   6459.160019 -17278.683556  23157.287990   -133.836479
PE30  20235.467993   1264.962363  21567.729860   -447.927410
PE31 -20008.134087   -781.833467 -21785.881280     -3.548604
PE33 -22701.059551  -7518.150438 -17437.804305     -1.169081
PE34  23207.281867   7083.359057  16955.599648    -63.554052
PE36   3707.618547  15585.240091  24886.767916   -106.559594
PG01  -5871.819785 -13938.951239 -22209.844417    167.317325
PG02   1913.759725 -15337.268791 -21074.170124   -561.355678
PG03 -11592.531279 -22816.768632  -7461.740696   -168.893884
PG04  -2376.755808 -21381.651722  15505.034014    136.800832
PG05   -978.241502  18582.135252  18730.079021   -140.231897
PG06 -25834.737065   5584.473352   3150.860828    560.908811
PG07 -21434.386755  -7481.886886  14638.560830     85.319964
PG08   4813.907568 -25244.899051  -5890.649900   -139.023081
PG09  -9980.699194 -13953.621225  20182.134073    -76.968528
PG10  19120.326161   4997.367792 -17721.325850    -50.779692
PG11 -17822.428969  12345.004454  15319.472913   -338.021450
PG12   6915.499385  23429.402987 -10789.643761   -417.266945
PG13 -13303.003825  22846.080586    361.024100    564.694405
PG14 -19980.262664  -8124.661808 -15584.866301    165.386721
PG15   -850.598441  25611.275917  -6957.019416     71.302260
PG16   7124.368472 -14927.470699  20369.840881   -463.270342
PG17 -16667.023594   3447.212360 -19986.787117    723.184710
PG18  22865.601305   5623.503193  12460.561431   -395.440024
PG19 -18127.343640  10632.203918 -16241.571386    362.705669
PG20 -10316.347047  11535.505474  21621.115030    415.263225
PG21   4063.608879 -15583.148522 -20409.662571    150.105967
PG22 -17110.883903  -1122.267557 -19744.193903    134.457384
PG23  20142.693460  15402.784125  -8189.817754     59.782745
PG24   1527.860030  15984.992305 -21503.303834   -300.809784
PG25  17402.260525  20209.232954   1088.740845    464.251421
PG26  15224.213861  -6188.601211  20797.061980    231.428165
PG27  12794.767734 -22315.235746   5421.969318    -28.517562
PG28  25998.902538  -5353.880570    907.346116     -1.876791
PG29   8287.077788  14629.111249  20487.249438   -608.428560
PG30 -26095.085590   -643.520221   5741.848490   -493.384082
PG31  22205.909492 -10314.454467  10617.273520   -222.421825
PJ02 -21852.635579  20111.405859 -25308.767546     -3.057306
PJ03 -30376.490988  28263.686072  12442.872421     -1.598400
PJ04 -25664.528808  29019.049245  22615.204762     70.494984
PR01  -8463.082850  14433.744727  19246.297177     64.259132
PR02  -1592.287706  25151.351716   4209.281469    -22.492466
PR03   6560.868668  21046.098590 -12846.081987     83.996609
PR04  10559.989819   5503.155014 -22536.089582    200.192608
PR05   9100.354534 -12972.243690 -19973.427983    117.936356
PR07  -6907.523059 -20392.158989  13672.445437     63.237547
PR08 -10758.442507  -5153.084943  22596.359020    -72.295618
PR09  -2114.446438 -13187.833623  21770.074350    138.725891
PR11 -23142.841290  -9387.698337  -5223.246890   -143.181458
PR12 -15070.010591   2981.116497 -20328.583626     30.579143
PR13    -98.398955  12128.773733 -22446.901767    -38.542032
PR14  17474.891709  15140.278216 -10731.795283     25.136671
PR15  23022.466772   8792.929891   6592.167449     86.713302
PR16  15199.262342  -2807.059436  20295.682161     18.074008
PR17   6755.069036   8252.242921  23179.203603     12.038201
PR18  19344.239575  -2836.465865  16372.695483     98.636646
PR19  22771.845627 -11219.588223   2567.440628   -244.855728
PR20  11750.540930 -15005.713016 -16930.553460    -98.952494
PR21  -7579.915348  -7634.853008 -23127.366798    -33.156869
PR22 -20095.991253   2677.661029 -15459.947734    119.297920
PR24 -10470.349608  15646.975687  17211.859861    -21.882673
PR25  -6413.097497  -8880.544206 -23031.693732     40.840269
EOF
